CCSDS_OMM_VERS = 2.0
CREATION_DATE  = 
ORIGINATOR     = 

OBJECT_NAME    = STARLINK-35465
OBJECT_ID      = 2025-223T
CENTER_NAME    = EARTH
REF_FRAME      = TEME
TIME_SYSTEM    = UTC
MEAN_ELEMENT_THEORY = SGP/SGP4

EPOCH          = 2025-10-29T12:00:02.998944
MEAN_MOTION    = 15.39519453
ECCENTRICITY   = .0001032
INCLINATION    = 53.1604
RA_OF_ASC_NODE = 185.9300
ARG_OF_PERICENTER = 108.5458
MEAN_ANOMALY   = 340.2234

EPHEMERIS_TYPE = 0
CLASSIFICATION_TYPE = U
NORAD_CAT_ID   = 65871
ELEMENT_SET_NO = 999
REV_AT_EPOCH   = 537
BSTAR          = .22775E-2
MEAN_MOTION_DOT = .91496E-3
MEAN_MOTION_DDOT = 0

CCSDS_OMM_VERS = 2.0
CREATION_DATE  = 
ORIGINATOR     = 

OBJECT_NAME    = STARLINK-34108
OBJECT_ID      = 2025-223U
CENTER_NAME    = EARTH
REF_FRAME      = TEME
TIME_SYSTEM    = UTC
MEAN_ELEMENT_THEORY = SGP/SGP4

EPOCH          = 2025-10-29T12:00:02.998944
MEAN_MOTION    = 15.41606417
ECCENTRICITY   = .0001123
INCLINATION    = 53.1599
RA_OF_ASC_NODE = 185.7787
ARG_OF_PERICENTER = 79.4816
MEAN_ANOMALY   = 85.1629

EPHEMERIS_TYPE = 0
CLASSIFICATION_TYPE = U
NORAD_CAT_ID   = 65872
ELEMENT_SET_NO = 999
REV_AT_EPOCH   = 528
BSTAR          = -.63068E-1
MEAN_MOTION_DOT = -.2395431E-1
MEAN_MOTION_DDOT = 0

CCSDS_OMM_VERS = 2.0
CREATION_DATE  = 
ORIGINATOR     = 

OBJECT_NAME    = STARLINK-35423
OBJECT_ID      = 2025-223V
CENTER_NAME    = EARTH
REF_FRAME      = TEME
TIME_SYSTEM    = UTC
MEAN_ELEMENT_THEORY = SGP/SGP4

EPOCH          = 2025-10-29T12:00:02.998944
MEAN_MOTION    = 15.44478482
ECCENTRICITY   = .0001255
INCLINATION    = 53.1598
RA_OF_ASC_NODE = 185.7431
ARG_OF_PERICENTER = 91.1495
MEAN_ANOMALY   = 91.0961

EPHEMERIS_TYPE = 0
CLASSIFICATION_TYPE = U
NORAD_CAT_ID   = 65873
ELEMENT_SET_NO = 999
REV_AT_EPOCH   = 537
BSTAR          = -.48388E-1
MEAN_MOTION_DOT = -.2027481E-1
MEAN_MOTION_DDOT = 0

CCSDS_OMM_VERS = 2.0
CREATION_DATE  = 
ORIGINATOR     = 

OBJECT_NAME    = STARLINK-35425
OBJECT_ID      = 2025-223W
CENTER_NAME    = EARTH
REF_FRAME      = TEME
TIME_SYSTEM    = UTC
MEAN_ELEMENT_THEORY = SGP/SGP4

EPOCH          = 2025-10-29T12:00:02.998944
MEAN_MOTION    = 15.39540590
ECCENTRICITY   = .0001398
INCLINATION    = 53.1601
RA_OF_ASC_NODE = 185.8273
ARG_OF_PERICENTER = 88.2220
MEAN_ANOMALY   = 52.0269

EPHEMERIS_TYPE = 0
CLASSIFICATION_TYPE = U
NORAD_CAT_ID   = 65874
ELEMENT_SET_NO = 999
REV_AT_EPOCH   = 537
BSTAR          = .20746E-2
MEAN_MOTION_DOT = .83274E-3
MEAN_MOTION_DDOT = 0

CCSDS_OMM_VERS = 2.0
CREATION_DATE  = 
ORIGINATOR     = 

OBJECT_NAME    = STARLINK-34688
OBJECT_ID      = 2025-223X
CENTER_NAME    = EARTH
REF_FRAME      = TEME
TIME_SYSTEM    = UTC
MEAN_ELEMENT_THEORY = SGP/SGP4

EPOCH          = 2025-10-29T12:43:26.090976
MEAN_MOTION    = 15.48036624
ECCENTRICITY   = .0000982
INCLINATION    = 53.1598
RA_OF_ASC_NODE = 185.5812
ARG_OF_PERICENTER = 181.4702
MEAN_ANOMALY   = 178.6304

EPHEMERIS_TYPE = 0
CLASSIFICATION_TYPE = U
NORAD_CAT_ID   = 65875
ELEMENT_SET_NO = 999
REV_AT_EPOCH   = 409
BSTAR          = -.66485E-2
MEAN_MOTION_DOT = -.339117E-2
MEAN_MOTION_DDOT = 0

CCSDS_OMM_VERS = 2.0
CREATION_DATE  = 
ORIGINATOR     = 

OBJECT_NAME    = STARLINK-34438
OBJECT_ID      = 2025-223Y
CENTER_NAME    = EARTH
REF_FRAME      = TEME
TIME_SYSTEM    = UTC
MEAN_ELEMENT_THEORY = SGP/SGP4

EPOCH          = 2025-10-29T11:09:40.390848
MEAN_MOTION    = 15.49342810
ECCENTRICITY   = .0000847
INCLINATION    = 53.1594
RA_OF_ASC_NODE = 185.8861
ARG_OF_PERICENTER = 89.5318
MEAN_ANOMALY   = 270.5788

EPHEMERIS_TYPE = 0
CLASSIFICATION_TYPE = U
NORAD_CAT_ID   = 65876
ELEMENT_SET_NO = 999
REV_AT_EPOCH   = 408
BSTAR          = .14265E-2
MEAN_MOTION_DOT = .79795E-3
MEAN_MOTION_DDOT = 0

CCSDS_OMM_VERS = 2.0
CREATION_DATE  = 
ORIGINATOR     = 

OBJECT_NAME    = STARLINK-35462
OBJECT_ID      = 2025-223Z
CENTER_NAME    = EARTH
REF_FRAME      = TEME
TIME_SYSTEM    = UTC
MEAN_ELEMENT_THEORY = SGP/SGP4

EPOCH          = 2025-10-29T06:29:31.733088
MEAN_MOTION    = 15.49379006
ECCENTRICITY   = .0001484
INCLINATION    = 53.1601
RA_OF_ASC_NODE = 186.8031
ARG_OF_PERICENTER = 136.6045
MEAN_ANOMALY   = 223.5081

EPHEMERIS_TYPE = 0
CLASSIFICATION_TYPE = U
NORAD_CAT_ID   = 65877
ELEMENT_SET_NO = 999
REV_AT_EPOCH   = 405
BSTAR          = .13716E-2
MEAN_MOTION_DOT = .76775E-3
MEAN_MOTION_DDOT = 0

CCSDS_OMM_VERS = 2.0
CREATION_DATE  = 
ORIGINATOR     = 

OBJECT_NAME    = STARLINK-35453
OBJECT_ID      = 2025-223AA
CENTER_NAME    = EARTH
REF_FRAME      = TEME
TIME_SYSTEM    = UTC
MEAN_ELEMENT_THEORY = SGP/SGP4

EPOCH          = 2025-10-29T09:36:17.298144
MEAN_MOTION    = 15.49341163
ECCENTRICITY   = .0000671
INCLINATION    = 53.1602
RA_OF_ASC_NODE = 186.1917
ARG_OF_PERICENTER = 88.3176
MEAN_ANOMALY   = 271.7910

EPHEMERIS_TYPE = 0
CLASSIFICATION_TYPE = U
NORAD_CAT_ID   = 65878
ELEMENT_SET_NO = 999
REV_AT_EPOCH   = 407
BSTAR          = .1534E-2
MEAN_MOTION_DOT = .85906E-3
MEAN_MOTION_DDOT = 0

CCSDS_OMM_VERS = 2.0
CREATION_DATE  = 
ORIGINATOR     = 

OBJECT_NAME    = STARLINK-35418
OBJECT_ID      = 2025-223AB
CENTER_NAME    = EARTH
REF_FRAME      = TEME
TIME_SYSTEM    = UTC
MEAN_ELEMENT_THEORY = SGP/SGP4

EPOCH          = 2025-10-29T09:34:48.274176
MEAN_MOTION    = 15.49334597
ECCENTRICITY   = .0000752
INCLINATION    = 53.1603
RA_OF_ASC_NODE = 186.1848
ARG_OF_PERICENTER = 94.8026
MEAN_ANOMALY   = 265.3069

EPHEMERIS_TYPE = 0
CLASSIFICATION_TYPE = U
NORAD_CAT_ID   = 65879
ELEMENT_SET_NO = 999
REV_AT_EPOCH   = 407
BSTAR          = .15691E-2
MEAN_MOTION_DOT = .87884E-3
MEAN_MOTION_DDOT = 0

CCSDS_OMM_VERS = 2.0
CREATION_DATE  = 
ORIGINATOR     = 

OBJECT_NAME    = STARLINK-35445
OBJECT_ID      = 2025-223AC
CENTER_NAME    = EARTH
REF_FRAME      = TEME
TIME_SYSTEM    = UTC
MEAN_ELEMENT_THEORY = SGP/SGP4

EPOCH          = 2025-10-29T09:35:47.783040
MEAN_MOTION    = 15.49334136
ECCENTRICITY   = .0001238
INCLINATION    = 53.1598
RA_OF_ASC_NODE = 186.1888
ARG_OF_PERICENTER = 93.3630
MEAN_ANOMALY   = 266.7521

EPHEMERIS_TYPE = 0
CLASSIFICATION_TYPE = U
NORAD_CAT_ID   = 65880
ELEMENT_SET_NO = 999
REV_AT_EPOCH   = 407
BSTAR          = .1443E-2
MEAN_MOTION_DOT = .80713E-3
MEAN_MOTION_DDOT = 0

CCSDS_OMM_VERS = 2.0
CREATION_DATE  = 
ORIGINATOR     = 

OBJECT_NAME    = STARLINK-35464
OBJECT_ID      = 2025-223AD
CENTER_NAME    = EARTH
REF_FRAME      = TEME
TIME_SYSTEM    = UTC
MEAN_ELEMENT_THEORY = SGP/SGP4

EPOCH          = 2025-10-29T09:34:18.594912
MEAN_MOTION    = 15.49322628
ECCENTRICITY   = .0000911
INCLINATION    = 53.1603
RA_OF_ASC_NODE = 186.1823
ARG_OF_PERICENTER = 97.9660
MEAN_ANOMALY   = 262.1453

EPHEMERIS_TYPE = 0
CLASSIFICATION_TYPE = U
NORAD_CAT_ID   = 65881
ELEMENT_SET_NO = 999
REV_AT_EPOCH   = 407
BSTAR          = .14162E-2
MEAN_MOTION_DOT = .79154E-3
MEAN_MOTION_DDOT = 0

CCSDS_OMM_VERS = 2.0
CREATION_DATE  = 
ORIGINATOR     = 

OBJECT_NAME    = STARLINK-35270
OBJECT_ID      = 2025-224A
CENTER_NAME    = EARTH
REF_FRAME      = TEME
TIME_SYSTEM    = UTC
MEAN_ELEMENT_THEORY = SGP/SGP4

EPOCH          = 2025-10-29T12:00:02.998944
MEAN_MOTION    = 15.51825462
ECCENTRICITY   = .0001198
INCLINATION    = 53.1595
RA_OF_ASC_NODE = 263.0170
ARG_OF_PERICENTER = 84.7863
MEAN_ANOMALY   = 8.1922

EPHEMERIS_TYPE = 0
CLASSIFICATION_TYPE = U
NORAD_CAT_ID   = 65882
ELEMENT_SET_NO = 999
REV_AT_EPOCH   = 474
BSTAR          = -.34498E-1
MEAN_MOTION_DOT = -.1855406E-1
MEAN_MOTION_DDOT = 0

