STARLINK-35465          
1 65871U 25223T   25302.50003471  .00091496  00000+0  22775-2 0  9996
2 65871  53.1604 185.9300 0001032 108.5458 340.2234 15.39519453  5379
STARLINK-34108          
1 65872U 25223U   25302.50003471 -.02395431  00000+0 -63068-1 0  9996
2 65872  53.1599 185.7787 0001123  79.4816  85.1629 15.41606417  5288
STARLINK-35423          
1 65873U 25223V   25302.50003471 -.02027481  00000+0 -48388-1 0  9992
2 65873  53.1598 185.7431 0001255  91.1495  91.0961 15.44478482  5371
STARLINK-35425          
1 65874U 25223W   25302.50003471  .00083274  00000+0  20746-2 0  9990
2 65874  53.1601 185.8273 0001398  88.2220  52.0269 15.39540590  5375
STARLINK-34688          
1 65875U 25223X   25302.53016309 -.00339117  00000+0 -66485-2 0  9990
2 65875  53.1598 185.5812 0000982 181.4702 178.6304 15.48036624  4097
STARLINK-34438          
1 65876U 25223Y   25302.46505082  .00079795  00000+0  14265-2 0  9994
2 65876  53.1594 185.8861 0000847  89.5318 270.5788 15.49342810  4087
STARLINK-35462          
1 65877U 25223Z   25302.27050617  .00076775  00000+0  13716-2 0  9998
2 65877  53.1601 186.8031 0001484 136.6045 223.5081 15.49379006  4054
STARLINK-35453          
1 65878U 25223AA  25302.40020021  .00085906  00000+0  15340-2 0  9991
2 65878  53.1602 186.1917 0000671  88.3176 271.7910 15.49341163  4078
STARLINK-35418          
1 65879U 25223AB  25302.39916984  .00087884  00000+0  15691-2 0  9998
2 65879  53.1603 186.1848 0000752  94.8026 265.3069 15.49334597  4076
STARLINK-35445          
1 65880U 25223AC  25302.39985860  .00080713  00000+0  14430-2 0  9993
2 65880  53.1598 186.1888 0001238  93.3630 266.7521 15.49334136  4077
STARLINK-35464          
1 65881U 25223AD  25302.39882633  .00079154  00000+0  14162-2 0  9997
2 65881  53.1603 186.1823 0000911  97.9660 262.1453 15.49322628  4071
STARLINK-35270          
1 65882U 25224A   25302.50003471 -.01855406  00000+0 -34498-1 0  9995
2 65882  53.1595 263.0170 0001198  84.7863   8.1922 15.51825462  4749
